*******************************************************************************
 Revised: April 12, 2021                 Earth                              399
 
 GEOPHYSICAL PROPERTIES (revised May 9, 2022):
  Vol. Mean Radius (km)    = 6371.01+-0.02   Mass x10^24 (kg)= 5.97219+-0.0006
  Equ. radius, km          = 6378.137        Mass layers:
  Polar axis, km           = 6356.752          Atmos         = 5.1   x 10^18 kg
  Flattening               = 1/298.257223563   oceans        = 1.4   x 10^21 kg
  Density, g/cm^3          = 5.51              crust         = 2.6   x 10^22 kg
  J2 (IERS 2010)           = 0.00108262545     mantle        = 4.043 x 10^24 kg
  g_p, m/s^2  (polar)      = 9.8321863685      outer core    = 1.835 x 10^24 kg
  g_e, m/s^2  (equatorial) = 9.7803267715      inner core    = 9.675 x 10^22 kg
  g_o, m/s^2               = 9.82022         Fluid core rad  = 3480 km
  GM, km^3/s^2             = 398600.435436   Inner core rad  = 1215 km
  GM 1-sigma, km^3/s^2     =      0.0014     Escape velocity = 11.186 km/s
  Rot. Rate (rad/s)        = 0.00007292115   Surface area:
  Mean sidereal day, hr    = 23.9344695944     land          = 1.48 x 10^8 km
  Mean solar day 2000.0, s = 86400.002         sea           = 3.62 x 10^8 km
  Mean solar day 1820.0, s = 86400.0         Love no., k2    = 0.299
  Moment of inertia        = 0.3308          Atm. pressure   = 1.0 bar
  Mean surface temp (Ts), K= 287.6           Volume, km^3    = 1.08321 x 10^12
  Mean effect. temp (Te), K= 255             Magnetic moment = 0.61 gauss Rp^3
  Geometric albedo         = 0.367           Vis. mag. V(1,0)= -3.86
  Solar Constant (W/m^2)   = 1367.6 (mean), 1414 (perihelion), 1322 (aphelion)
 HELIOCENTRIC ORBIT CHARACTERISTICS:
  Obliquity to orbit, deg  = 23.4392911  Sidereal orb period  = 1.0000174 y
  Orbital speed, km/s      = 29.79       Sidereal orb period  = 365.25636 d
  Mean daily motion, deg/d = 0.9856474   Hill's sphere radius = 234.9       
*******************************************************************************


*******************************************************************************
Ephemeris / WWW_USER Wed Oct  5 14:43:08 2022 Pasadena, USA      / Horizons
*******************************************************************************
Target body name: Earth (399)                     {source: DE441}
Center body name: Sun (10)                        {source: DE441}
Center-site name: BODY CENTER
*******************************************************************************
Start time      : A.D. 2023-May-21 16:00:00.0000 TDB
Stop  time      : A.D. 2023-May-23 16:00:00.0000 TDB
Step-size       : 30 minutes
*******************************************************************************
Center geodetic : 0.00000000,0.00000000,0.0000000 {E-lon(deg),Lat(deg),Alt(km)}
Center cylindric: 0.00000000,0.00000000,0.0000000 {E-lon(deg),Dxy(km),Dz(km)}
Center radii    : 696000.0 x 696000.0 x 696000.0 k{Equator, meridian, pole}    
Output units    : KM-S
Output type     : GEOMETRIC cartesian states
Output format   : 2 (position and velocity)
Reference frame : Ecliptic of J2000.0
*******************************************************************************
JDTDB
   X     Y     Z
   VX    VY    VZ
*******************************************************************************
$$SOE
2460086.812500000 = A.D. 2023-May-22 07:30:00.0000 TDB 
 X =-7.420233233404852E+07 Y =-1.319968140291326E+08 Z = 6.942941454999149E+03
 VX= 2.549469818979264E+01 VY=-1.471165358689680E+01 VZ= 2.156537473307907E-05
2460086.833333333 = A.D. 2023-May-22 08:00:00.0000 TDB 
 X =-7.415643728517604E+07 Y =-1.320232867813084E+08 Z = 6.942983741655946E+03
 VX= 2.549979997933905E+01 VY=-1.470251521662254E+01 VZ= 2.542152833484579E-05
2460086.854166667 = A.D. 2023-May-22 08:30:00.0000 TDB 
 X =-7.411053305620402E+07 Y =-1.320497430829023E+08 Z = 6.943032978691161E+03
 VX= 2.550489830037236E+01 VY=-1.469337516274707E+01 VZ= 2.928799303614227E-05
2460086.875000000 = A.D. 2023-May-22 09:00:00.0000 TDB 
 X =-7.406461965337594E+07 Y =-1.320761829308855E+08 Z = 6.943089184567332E+03
 VX= 2.550999315269027E+01 VY=-1.468423342743163E+01 VZ= 3.316467213565488E-05
2460086.895833333 = A.D. 2023-May-22 09:30:00.0000 TDB 
 X =-7.401869708293566E+07 Y =-1.321026063222334E+08 Z = 6.943152377583086E+03
 VX= 2.551508453609444E+01 VY=-1.467509001283425E+01 VZ= 3.705146900490064E-05
2460086.916666667 = A.D. 2023-May-22 10:00:00.0000 TDB 
 X =-7.397276535112745E+07 Y =-1.321290132539254E+08 Z = 6.943222575873137E+03
 VX= 2.552017245039043E+01 VY=-1.466594492110984E+01 VZ= 4.094828710421439E-05
2460086.937500000 = A.D. 2023-May-22 10:30:00.0000 TDB 
 X =-7.392682446419583E+07 Y =-1.321554037229445E+08 Z = 6.943299797371030E+03
 VX= 2.552525689538769E+01 VY=-1.465679815441007E+01 VZ= 4.485502995610346E-05
2460086.958333333 = A.D. 2023-May-22 11:00:00.0000 TDB 
 X =-7.388087442838575E+07 Y =-1.321817777262776E+08 Z = 6.943384059861302E+03
 VX= 2.553033787089954E+01 VY=-1.464764971488347E+01 VZ= 4.877160117811030E-05
2460086.979166667 = A.D. 2023-May-22 11:30:00.0000 TDB 
 X =-7.383491524994241E+07 Y =-1.322081352609156E+08 Z = 6.943475380964577E+03
 VX= 2.553541537674311E+01 VY=-1.463849960467538E+01 VZ= 5.269790446504885E-05
2460087.000000000 = A.D. 2023-May-22 12:00:00.0000 TDB 
 X =-7.378894693511137E+07 Y =-1.322344763238533E+08 Z = 6.943573778107762E+03
 VX= 2.554048941273929E+01 VY=-1.462934782592794E+01 VZ= 5.663384358989276E-05
2460087.020833333 = A.D. 2023-May-22 12:30:00.0000 TDB 
 X =-7.374296949013856E+07 Y =-1.322608009120891E+08 Z = 6.943679268524051E+03
 VX= 2.554555997871280E+01 VY=-1.462019438078011E+01 VZ= 6.057932242153896E-05
2460087.041666667 = A.D. 2023-May-22 13:00:00.0000 TDB 
 X =-7.369698292127013E+07 Y =-1.322871090226255E+08 Z = 6.943791869327426E+03
 VX= 2.555062707449201E+01 VY=-1.461103927136767E+01 VZ= 6.453424491237314E-05
2460087.062500000 = A.D. 2023-May-22 13:30:00.0000 TDB 
 X =-7.365098723475260E+07 Y =-1.323134006524687E+08 Z = 6.943911597415805E+03
 VX= 2.555569069990901E+01 VY=-1.460188249982318E+01 VZ= 6.849851510271066E-05
2460087.083333333 = A.D. 2023-May-22 14:00:00.0000 TDB 
 X =-7.360498243683279E+07 Y =-1.323396757986289E+08 Z = 6.944038469538093E+03
 VX= 2.556075085479958E+01 VY=-1.459272406827604E+01 VZ= 7.247203712612560E-05
2460087.104166667 = A.D. 2023-May-22 14:30:00.0000 TDB 
 X =-7.355896853375773E+07 Y =-1.323659344581198E+08 Z = 6.944172502242029E+03
 VX= 2.556580753900308E+01 VY=-1.458356397885244E+01 VZ= 7.645471520856262E-05
2460087.125000000 = A.D. 2023-May-22 15:00:00.0000 TDB 
 X =-7.351294553177486E+07 Y =-1.323921766279593E+08 Z = 6.944313711956143E+03
 VX= 2.557086075236253E+01 VY=-1.457440223367538E+01 VZ= 8.044645366833691E-05
2460087.145833333 = A.D. 2023-May-22 15:30:00.0000 TDB 
 X =-7.346691343713184E+07 Y =-1.324184023051689E+08 Z = 6.944462114855647E+03
 VX= 2.557591049472445E+01 VY=-1.456523883486467E+01 VZ= 8.444715692323967E-05
2460087.166666667 = A.D. 2023-May-22 16:00:00.0000 TDB 
 X =-7.342087225607656E+07 Y =-1.324446114867739E+08 Z = 6.944617727041245E+03
 VX= 2.558095676593895E+01 VY=-1.455607378453692E+01 VZ= 8.845672948787353E-05
2460087.187500000 = A.D. 2023-May-22 16:30:00.0000 TDB 
 X =-7.337482199485722E+07 Y =-1.324708041698036E+08 Z = 6.944780564345419E+03
 VX= 2.558599956585964E+01 VY=-1.454690708480555E+01 VZ= 9.247507597365257E-05
2460087.208333333 = A.D. 2023-May-22 17:00:00.0000 TDB 
 X =-7.332876265972231E+07 Y =-1.324969803512909E+08 Z = 6.944950642503798E+03
 VX= 2.559103889434359E+01 VY=-1.453773873778079E+01 VZ= 9.650210109501955E-05
2460087.229166667 = A.D. 2023-May-22 17:30:00.0000 TDB 
 X =-7.328269425692053E+07 Y =-1.325231400282725E+08 Z = 6.945127977073193E+03
 VX= 2.559607475125131E+01 VY=-1.452856874556967E+01 VZ= 1.005377096667814E-04
2460087.250000000 = A.D. 2023-May-22 18:00:00.0000 TDB 
 X =-7.323661679270084E+07 Y =-1.325492831977890E+08 Z = 6.945312583364546E+03
 VX= 2.560110713644675E+01 VY=-1.451939711027605E+01 VZ= 1.045818066112147E-04
2460087.270833333 = A.D. 2023-May-22 18:30:00.0000 TDB 
 X =-7.319053027331245E+07 Y =-1.325754098568849E+08 Z = 6.945504476606846E+03
 VX= 2.560613604979723E+01 VY=-1.451022383400057E+01 VZ= 1.086342969482956E-04
2460087.291666667 = A.D. 2023-May-22 19:00:00.0000 TDB 
 X =-7.314443470500475E+07 Y =-1.326015200026081E+08 Z = 6.945703671805561E+03
 VX= 2.561116149117343E+01 VY=-1.450104891884071E+01 VZ= 1.126950858134634E-04
2460087.312500000 = A.D. 2023-May-22 19:30:00.0000 TDB 
 X =-7.309833009402746E+07 Y =-1.326276136320106E+08 Z = 6.945910183832049E+03
 VX= 2.561618346044935E+01 VY=-1.449187236689076E+01 VZ= 1.167640784434099E-04
2460087.333333333 = A.D. 2023-May-22 20:00:00.0000 TDB 
 X =-7.305221644663046E+07 Y =-1.326536907421481E+08 Z = 6.946124027356505E+03
 VX= 2.562120195750229E+01 VY=-1.448269418024181E+01 VZ= 1.208411801840725E-04
2460087.354166667 = A.D. 2023-May-22 20:30:00.0000 TDB 
 X =-7.300609376906388E+07 Y =-1.326797513300799E+08 Z = 6.946345216900110E+03
 VX= 2.562621698221282E+01 VY=-1.447351436098179E+01 VZ= 1.249262964950759E-04
2460087.375000000 = A.D. 2023-May-22 21:00:00.0000 TDB 
 X =-7.295996206757799E+07 Y =-1.327057953928693E+08 Z = 6.946573766775429E+03
 VX= 2.563122853446474E+01 VY=-1.446433291119544E+01 VZ= 1.290193329479550E-04
2460087.395833333 = A.D. 2023-May-22 21:30:00.0000 TDB 
 X =-7.291382134842333E+07 Y =-1.327318229275832E+08 Z = 6.946809691175818E+03
 VX= 2.563623661414507E+01 VY=-1.445514983296433E+01 VZ= 1.331201952234906E-04
2460087.416666667 = A.D. 2023-May-22 22:00:00.0000 TDB 
 X =-7.286767161785068E+07 Y =-1.327578339312922E+08 Z = 6.947053004123271E+03
 VX= 2.564124122114399E+01 VY=-1.444596512836686E+01 VZ= 1.372287891188151E-04
2460087.437500000 = A.D. 2023-May-22 22:30:00.0000 TDB 
 X =-7.282151288211091E+07 Y =-1.327838284010707E+08 Z = 6.947303719416261E+03
 VX= 2.564624235535485E+01 VY=-1.443677879947825E+01 VZ= 1.413450205483002E-04
